EUTELSAT QUANTUM        
1 49056U 21069B   25219.48133529  .00000130  00000+0  00000+0 0  9998
2 49056   0.0604 275.4645 0002145 230.8657  30.8971  1.00269694 14787
EUTELSAT KONNECT VHTS   
1 53765U 22110A   25219.32962054  .00000021  00000+0  00000+0 0  9993
2 53765   0.0564  99.3412 0002862  28.0218 310.1109  1.00268236  3679
EUTELSAT HOTBIRD 13F    
1 54048U 22134A   25219.54583888  .00000091  00000+0  00000+0 0  9999
2 54048   0.0641 280.0021 0001934  86.8121 158.9970  1.00269219 10235
EUTELSAT HOTBIRD 13G    
1 54225U 22146A   25219.54583888  .00000091  00000+0  00000+0 0  9999
2 54225   0.0585 249.4709 0002104 286.4447 349.9003  1.00270956  4322
EUTELSAT 10B            
1 54259U 22157A   25219.54523220  .00000073  00000+0  00000+0 0  9992
2 54259   0.0510  96.1388 0001671  22.9562  43.5071  1.00271682  9870
EUTELSAT 36D            
1 59346U 24059A   25219.55034556  .00000000  00000+0  00000+0 0  9997
2 59346   0.0274  98.3608 0000399  34.8205  57.1125  1.00269934  5009
